start=new Date('2023-03-17T00:00:00.000Z').valueOf();
sats=[{"INCLINATION":"53.0538","SITE":"AFETR","COUNTRY_CODE":"US","MEAN_MOTION_DOT":"0.00020288","OBJECT_TYPE":"PAYLOAD","LAUNCH_DATE":"2021-03-11","RA_OF_ASC_NODE":"99.9766","MEAN_ANOMALY":"268.3054","DECAY_DATE":null,"MEAN_ELEMENT_THEORY":"SGP4","ELEMENT_SET_NO":"999","CENTER_NAME":"EARTH","MEAN_MOTION_DDOT":"0.0000000000000","FILE":"3862592","PERIOD":"95.593","EPOCH":"2023-03-16T18:25:09.222240","GP_ID":"228281106","NORAD_CAT_ID":"47833","RCS_SIZE":"LARGE","MEAN_MOTION":"15.06382460","ARG_OF_PERICENTER":"91.8081","ECCENTRICITY":"0.00012700","REF_FRAME":"TEME","EPHEMERIS_TYPE":"0","PERIAPSIS":"546.388","SEMIMAJOR_AXIS":"6925.402","BSTAR":"0.00137760000000","REV_AT_EPOCH":"11252","OBJECT_ID":"2021-018AY","TLE_LINE2":"2 47833  53.0538  99.9766 0001270  91.8081 268.3054 15.06382460112528","TIME_SYSTEM":"UTC","CLASSIFICATION_TYPE":"U","TLE_LINE1":"1 47833U 21018AY  23075.76746785  .00020288  00000-0  13776-2 0  9990","OBJECT_NAME":"STARLINK-2423","APOAPSIS":"548.147"},{"MEAN_MOTION_DOT":"0.00016937","COUNTRY_CODE":"US","INCLINATION":"53.0518","SITE":"AFETR","MEAN_ELEMENT_THEORY":"SGP4","DECAY_DATE":null,"MEAN_ANOMALY":"257.4282","ELEMENT_SET_NO":"999","CENTER_NAME":"EARTH","MEAN_MOTION_DDOT":"0.0000000000000","OBJECT_TYPE":"PAYLOAD","LAUNCH_DATE":"2021-03-11","RA_OF_ASC_NODE":"99.9289","PERIOD":"95.594","EPOCH":"2023-03-16T18:41:03.571584","GP_ID":"228282357","NORAD_CAT_ID":"47834","RCS_SIZE":"LARGE","FILE":"3862592","MEAN_MOTION":"15.06363449","ECCENTRICITY":"0.00011350","REF_FRAME":"TEME","ARG_OF_PERICENTER":"102.6834","EPHEMERIS_TYPE":"0","PERIAPSIS":"546.540","SEMIMAJOR_AXIS":"6925.461","REV_AT_EPOCH":"11252","BSTAR":"0.00115430000000","TIME_SYSTEM":"UTC","CLASSIFICATION_TYPE":"U","OBJECT_ID":"2021-018AZ","TLE_LINE2":"2 47834  53.0518  99.9289 0001135 102.6834 257.4282 15.06363449112522","OBJECT_NAME":"STARLINK-2424","APOAPSIS":"548.112","TLE_LINE1":"1 47834U 21018AZ  23075.77851356  .00016937  00000-0  11543-2 0  9999"},{"OBJECT_TYPE":"PAYLOAD","RA_OF_ASC_NODE":"104.9325","LAUNCH_DATE":"2021-03-11","DECAY_DATE":null,"MEAN_ANOMALY":"265.5406","ELEMENT_SET_NO":"999","MEAN_ELEMENT_THEORY":"SGP4","MEAN_MOTION_DDOT":"0.0000000000000","CENTER_NAME":"EARTH","INCLINATION":"53.0522","SITE":"AFETR","COUNTRY_CODE":"US","MEAN_MOTION_DOT":"-0.00004217","MEAN_MOTION":"15.06378763","EPHEMERIS_TYPE":"0","ECCENTRICITY":"0.00013530","REF_FRAME":"TEME","ARG_OF_PERICENTER":"94.5738","FILE":"3862592","PERIOD":"95.593","EPOCH":"2023-03-16T19:20:14.031744","NORAD_CAT_ID":"47835","RCS_SIZE":"LARGE","GP_ID":"228282108","BSTAR":"-0.00026456000000","REV_AT_EPOCH":"11239","PERIAPSIS":"546.342","SEMIMAJOR_AXIS":"6925.414","TLE_LINE1":"1 47835U 21018BA  23075.80571796 -.00004217  00000-0 -26456-3 0  9991","APOAPSIS":"548.216","OBJECT_NAME":"STARLINK-2425","OBJECT_ID":"2021-018BA","TLE_LINE2":"2 47835  53.0522 104.9325 0001353  94.5738 265.5406 15.06378763112398","CLASSIFICATION_TYPE":"U","TIME_SYSTEM":"UTC"},{"BSTAR":"0.00149250000000","REV_AT_EPOCH":"11247","SEMIMAJOR_AXIS":"6925.333","PERIAPSIS":"545.970","TLE_LINE1":"1 47836U 21018BB  23075.79696065  .00022022  00000-0  14925-2 0  9996","APOAPSIS":"548.426","OBJECT_NAME":"STARLINK-2426","TLE_LINE2":"2 47836  53.0523  99.9336 0001773  98.3238 261.7952 15.06404989112471","OBJECT_ID":"2021-018BB","CLASSIFICATION_TYPE":"U","TIME_SYSTEM":"UTC","RA_OF_ASC_NODE":"99.9336","LAUNCH_DATE":"2021-03-11","OBJECT_TYPE":"PAYLOAD","MEAN_MOTION_DDOT":"0.0000000000000","CENTER_NAME":"EARTH","MEAN_ELEMENT_THEORY":"SGP4","DECAY_DATE":null,"ELEMENT_SET_NO":"999","MEAN_ANOMALY":"261.7952","SITE":"AFETR","INCLINATION":"53.0523","COUNTRY_CODE":"US","MEAN_MOTION_DOT":"0.00022022","EPHEMERIS_TYPE":"0","REF_FRAME":"TEME","ECCENTRICITY":"0.00017730","ARG_OF_PERICENTER":"98.3238","MEAN_MOTION":"15.06404989","FILE":"3862592","RCS_SIZE":"LARGE","NORAD_CAT_ID":"47836","GP_ID":"228281356","PERIOD":"95.592","EPOCH":"2023-03-16T19:07:37.400160"},{"REV_AT_EPOCH":"11270","BSTAR":"0.00186320000000","SEMIMAJOR_AXIS":"6925.401","PERIAPSIS":"546.130","APOAPSIS":"548.402","OBJECT_NAME":"STARLINK-2427","TLE_LINE1":"1 47837U 21018BC  23075.40805779  .00027567  00000-0  18632-2 0  9997","CLASSIFICATION_TYPE":"U","TIME_SYSTEM":"UTC","TLE_LINE2":"2 47837  53.0529  81.5917 0001640 119.8812 240.2340 15.06382900112707","OBJECT_ID":"2021-018BC","MEAN_MOTION_DDOT":"0.0000000000000","CENTER_NAME":"EARTH","ELEMENT_SET_NO":"999","DECAY_DATE":null,"MEAN_ANOMALY":"240.2340","MEAN_ELEMENT_THEORY":"SGP4","LAUNCH_DATE":"2021-03-11","RA_OF_ASC_NODE":"81.5917","OBJECT_TYPE":"PAYLOAD","COUNTRY_CODE":"US","MEAN_MOTION_DOT":"0.00027567","SITE":"AFETR","INCLINATION":"53.0529","EPHEMERIS_TYPE":"0","REF_FRAME":"TEME","ARG_OF_PERICENTER":"119.8812","ECCENTRICITY":"0.00016400","MEAN_MOTION":"15.06382900","RCS_SIZE":"LARGE","NORAD_CAT_ID":"47837","GP_ID":"228248151","PERIOD":"95.593","EPOCH":"2023-03-16T09:47:36.193056","FILE":"3862295"},{"EPOCH":"2023-03-16T18:03:54.258048","PERIOD":"95.594","GP_ID":"228281858","NORAD_CAT_ID":"47838","RCS_SIZE":"MEDIUM","FILE":"3862592","MEAN_MOTION":"15.06366410","REF_FRAME":"TEME","ARG_OF_PERICENTER":"78.8322","ECCENTRICITY":"0.00009870","EPHEMERIS_TYPE":"0","COUNTRY_CODE":"US","MEAN_MOTION_DOT":"0.00009525","INCLINATION":"53.0532","SITE":"AFETR","MEAN_ANOMALY":"281.2777","DECAY_DATE":null,"MEAN_ELEMENT_THEORY":"SGP4","ELEMENT_SET_NO":"999","CENTER_NAME":"EARTH","MEAN_MOTION_DDOT":"0.0000000000000","OBJECT_TYPE":"PAYLOAD","RA_OF_ASC_NODE":"100.0423","LAUNCH_DATE":"2021-03-11","TIME_SYSTEM":"UTC","CLASSIFICATION_TYPE":"U","OBJECT_ID":"2021-018BD","TLE_LINE2":"2 47838  53.0532 100.0423 0000987  78.8322 281.2777 15.06366410112464","OBJECT_NAME":"STARLINK-2429","APOAPSIS":"548.000","TLE_LINE1":"1 47838U 21018BD  23075.75271132  .00009525  00000-0  65805-3 0  9995","PERIAPSIS":"546.633","SEMIMAJOR_AXIS":"6925.452","REV_AT_EPOCH":"11246","BSTAR":"0.00065805000000"},{"FILE":"3862432","EPOCH":"2023-03-16T17:09:30.795264","PERIOD":"95.592","GP_ID":"228256563","NORAD_CAT_ID":"47839","RCS_SIZE":"LARGE","MEAN_MOTION":"15.06406846","ARG_OF_PERICENTER":"91.5390","ECCENTRICITY":"0.00010180","REF_FRAME":"TEME","EPHEMERIS_TYPE":"0","INCLINATION":"53.0562","SITE":"AFETR","MEAN_MOTION_DOT":"0.00024528","COUNTRY_CODE":"US","OBJECT_TYPE":"PAYLOAD","RA_OF_ASC_NODE":"70.2178","LAUNCH_DATE":"2021-03-11","MEAN_ANOMALY":"268.5716","DECAY_DATE":null,"ELEMENT_SET_NO":"999","MEAN_ELEMENT_THEORY":"SGP4","CENTER_NAME":"EARTH","MEAN_MOTION_DDOT":"0.0000000000000","OBJECT_ID":"2021-018BE","TLE_LINE2":"2 47839  53.0562  70.2178 0001018  91.5390 268.5716 15.06406846112555","TIME_SYSTEM":"UTC","CLASSIFICATION_TYPE":"U","TLE_LINE1":"1 47839U 21018BE  23075.71493976  .00024528  00000-0  16595-2 0  9995","OBJECT_NAME":"STARLINK-2431","APOAPSIS":"547.898","PERIAPSIS":"546.488","SEMIMAJOR_AXIS":"6925.328","BSTAR":"0.00165950000000","REV_AT_EPOCH":"11255"},{"REF_FRAME":"TEME","ECCENTRICITY":"0.00012180","ARG_OF_PERICENTER":"93.0462","EPHEMERIS_TYPE":"0","MEAN_MOTION":"15.06378736","FILE":"3862592","GP_ID":"228280857","NORAD_CAT_ID":"47840","RCS_SIZE":"LARGE","EPOCH":"2023-03-16T17:24:06.588000","PERIOD":"95.593","LAUNCH_DATE":"2021-03-11","RA_OF_ASC_NODE":"80.1679","OBJECT_TYPE":"PAYLOAD","CENTER_NAME":"EARTH","MEAN_MOTION_DDOT":"0.0000000000000","MEAN_ANOMALY":"267.0666","DECAY_DATE":null,"MEAN_ELEMENT_THEORY":"SGP4","ELEMENT_SET_NO":"999","SITE":"AFETR","INCLINATION":"53.0531","MEAN_MOTION_DOT":"0.00020239","COUNTRY_CODE":"US","TLE_LINE1":"1 47840U 21018BF  23075.72507625  .00020239  00000-0  13745-2 0  9994","OBJECT_NAME":"STARLINK-2432","APOAPSIS":"548.122","TLE_LINE2":"2 47840  53.0531  80.1679 0001218  93.0462 267.0666 15.06378736112743","OBJECT_ID":"2021-018BF","CLASSIFICATION_TYPE":"U","TIME_SYSTEM":"UTC","BSTAR":"0.00137450000000","REV_AT_EPOCH":"11274","SEMIMAJOR_AXIS":"6925.414","PERIAPSIS":"546.435"},{"FILE":"3862592","GP_ID":"228281107","RCS_SIZE":"LARGE","NORAD_CAT_ID":"47841","PERIOD":"95.593","EPOCH":"2023-03-16T17:18:48.608352","REF_FRAME":"TEME","ECCENTRICITY":"0.00018280","ARG_OF_PERICENTER":"98.2367","EPHEMERIS_TYPE":"0","MEAN_MOTION":"15.06385900","SITE":"AFETR","INCLINATION":"53.0531","COUNTRY_CODE":"US","MEAN_MOTION_DOT":"0.00015189","RA_OF_ASC_NODE":"80.1837","LAUNCH_DATE":"2021-03-11","OBJECT_TYPE":"PAYLOAD","CENTER_NAME":"EARTH","MEAN_MOTION_DDOT":"0.0000000000000","DECAY_DATE":null,"MEAN_ELEMENT_THEORY":"SGP4","MEAN_ANOMALY":"261.8829","ELEMENT_SET_NO":"999","TLE_LINE2":"2 47841  53.0531  80.1837 0001828  98.2367 261.8829 15.06385900112742","OBJECT_ID":"2021-018BG","TIME_SYSTEM":"UTC","CLASSIFICATION_TYPE":"U","TLE_LINE1":"1 47841U 21018BG  23075.72139593  .00015189  00000-0  10368-2 0  9996","OBJECT_NAME":"STARLINK-2433","APOAPSIS":"548.523","SEMIMAJOR_AXIS":"6925.392","PERIAPSIS":"545.991","BSTAR":"0.00103680000000","REV_AT_EPOCH":"11274"},{"TLE_LINE1":"1 47842U 21018BH  23075.57486390 -.00010598  00000-0 -69463-3 0  9992","APOAPSIS":"548.193","OBJECT_NAME":"STARLINK-2434","OBJECT_ID":"2021-018BH","TLE_LINE2":"2 47842  53.0539 110.8412 0001187  97.7765 262.3359 15.06348777112357","CLASSIFICATION_TYPE":"U","TIME_SYSTEM":"UTC","BSTAR":"-0.00069463000000","REV_AT_EPOCH":"11235","PERIAPSIS":"546.548","SEMIMAJOR_AXIS":"6925.506","MEAN_MOTION":"15.06348777","EPHEMERIS_TYPE":"0","ECCENTRICITY":"0.00011870","REF_FRAME":"TEME","ARG_OF_PERICENTER":"97.7765","FILE":"3862592","PERIOD":"95.595","EPOCH":"2023-03-16T13:47:48.240960","NORAD_CAT_ID":"47842","RCS_SIZE":"LARGE","GP_ID":"228282358","OBJECT_TYPE":"PAYLOAD","LAUNCH_DATE":"2021-03-11","RA_OF_ASC_NODE":"110.8412","DECAY_DATE":null,"MEAN_ANOMALY":"262.3359","MEAN_ELEMENT_THEORY":"SGP4","ELEMENT_SET_NO":"999","MEAN_MOTION_DDOT":"0.0000000000000","CENTER_NAME":"EARTH","INCLINATION":"53.0539","SITE":"AFETR","MEAN_MOTION_DOT":"-0.00010598","COUNTRY_CODE":"US"}];
